NORAD_CAT_ID,OBJECT_NAME,OBJECT_TYPE,EPOCH,MEAN_MOTION,ECCENTRICITY,INCLINATION,RA_OF_ASC_NODE,ARG_OF_PERICENTER,MEAN_ANOMALY,BSTAR,MEAN_MOTION_DOT,MEAN_MOTION_DDOT,TLE_LINE0,TLE_LINE1,TLE_LINE2,SEMIMAJOR_AXIS,PERIOD,APOGEE,PERIGEE,DECAYED
53429.0,STARLINK-4543,PAYLOAD,2023-06-14 09:38:36,15.0882812,8.64e-05,53.2177,270.2137,86.46,273.6491,0.00010731,1.42e-05,0.0,0 STARLINK-4543,1 53429U 22097AT  23165.40180586  .00001420  00000-0  10731-3 0  9994,2 53429  53.2177 270.2137 0000864  86.4600 273.6491 15.08828120 47440,6917.917,95.438,540.379,539.184,0.0
53429.0,STARLINK-4543,PAYLOAD,2023-06-14 16:00:08,15.08840057,0.0001111,53.2176,269.0245,94.3036,265.8083,4.8977e-05,4.92e-06,0.0,0 STARLINK-4543,1 53429U 22097AT  23165.66676090  .00000492  00000-0  48977-4 0  9994,2 53429  53.2176 269.0245 0001111  94.3036 265.8083 15.08840057 47489,6917.88,95.438,540.514,538.977,0.0
53429.0,STARLINK-4543,PAYLOAD,2023-06-15 12:40:09,15.08838501,0.0001114,53.2174,265.1604,83.1338,276.9781,2.6704e-05,1.37e-06,0.0,0 STARLINK-4543,1 53429U 22097AT  23166.52788495  .00000137  00000-0  26704-4 0  9993,2 53429  53.2174 265.1604 0001114  83.1338 276.9781 15.08838501 48094,6917.885,95.438,540.521,538.979,0.0
53429.0,STARLINK-4543,PAYLOAD,2023-06-15 15:50:55,15.08841922,0.0001123,53.2169,264.565,86.1755,273.9365,5.455e-05,5.8e-06,0.0,0 STARLINK-4543,1 53429U 22097AT  23166.66036192  .00000580  00000-0  54550-4 0  9990,2 53429  53.2169 264.5650 0001123  86.1755 273.9365 15.08841922 48117,6917.875,95.437,540.516,538.963,0.0
53429.0,STARLINK-4543,PAYLOAD,2023-06-15 19:01:41,15.088464,0.0001114,53.2171,263.9706,82.9259,277.186,8.7389e-05,1.103e-05,0.0,0 STARLINK-4543,1 53429U 22097AT  23166.79283808  .00001103  00000-0  87389-4 0  9990,2 53429  53.2171 263.9706 0001114  82.9259 277.1860 15.08846400 47658,6917.861,95.437,540.496,538.955,0.0
53429.0,STARLINK-4543,PAYLOAD,2023-06-16 12:30:55,15.08843845,8.13e-05,53.2169,260.7004,82.0595,278.0489,7.7614e-05,9.48e-06,0.0,0 STARLINK-4543,1 53429U 22097AT  23167.52147701  .00000948  00000-0  77614-4 0  9999,2 53429  53.2169 260.7004 0000813  82.0595 278.0489 15.08843845 48243,6917.869,95.437,540.296,539.171,0.0
53429.0,STARLINK-4543,PAYLOAD,2023-06-16 18:52:26,15.08861223,0.0001071,53.2173,259.5092,87.8272,272.2842,0.00018619,2.678e-05,0.0,0 STARLINK-4543,1 53429U 22097AT  23167.78642070  .00002678  00000-0  18619-3 0  9997,2 53429  53.2173 259.5092 0001071  87.8272 272.2842 15.08861223 48286,6917.816,95.436,540.421,538.94,0.0
53429.0,STARLINK-4543,PAYLOAD,2023-06-16 23:38:39,15.08812743,0.0001353,53.2178,258.615,92.3873,267.7274,-0.00016164,-2.857e-05,0.0,0 STARLINK-4543,1 53429U 22097AT  23167.98518218 -.00002857  00000-0 -16164-3 0  9999,2 53429  53.2178 258.6150 0001353  92.3873 267.7274 15.08812743 47838,6917.964,95.439,540.765,538.893,0.0
53429.0,STARLINK-4543,PAYLOAD,2023-06-17 09:10:58,15.08819801,8.67e-05,53.2169,256.8348,97.8227,262.2863,-0.00018422,-3.217e-05,0.0,0 STARLINK-4543,1 53429U 22097AT  23168.38262169 -.00003217  00000-0 -18422-3 0  9995,2 53429  53.2169 256.8348 0000867  97.8227 262.2863 15.08819801 48375,6917.942,95.439,540.407,539.207,0.0
53429.0,STARLINK-4543,PAYLOAD,2023-06-17 17:07:53,15.08828477,0.0001068,53.2172,255.3461,109.9691,250.1416,-9.7393e-05,-1.837e-05,0.0,0 STARLINK-4543,1 53429U 22097AT  23168.71381590 -.00001837  00000-0 -97393-4 0  9993,2 53429  53.2172 255.3461 0001068 109.9691 250.1416 15.08828477 47944,6917.916,95.438,540.519,539.042,0.0
53429.0,STARLINK-4543,PAYLOAD,2023-06-18 05:50:58,15.08837453,9.78e-05,53.2171,252.9668,112.2952,247.8144,-2.1081e-06,-3.21e-06,0.0,0 STARLINK-4543,1 53429U 22097AT  23169.24372882 -.00000321  00000-0 -21081-5 0  9995,2 53429  53.2171 252.9668 0000978 112.2952 247.8144 15.08837453 48026,6917.888,95.438,540.43,539.077,0.0
53429.0,STARLINK-4543,PAYLOAD,2023-06-18 12:12:30,15.08845505,0.0001063,53.2172,251.777,113.9046,246.2057,-6.6002e-05,-1.338e-05,0.0,0 STARLINK-4543,1 53429U 22097AT  23169.50868687 -.00001338  00000-0 -66002-4 0  9997,2 53429  53.2172 251.7770 0001063 113.9046 246.2057 15.08845505 48546,6917.864,95.437,540.464,538.993,0.0
53429.0,STARLINK-4543,PAYLOAD,2023-06-19 16:49:26,15.08841883,8.49e-05,53.2162,246.4264,104.1242,255.9845,0.00021685,3.165e-05,0.0,0 STARLINK-4543,1 53429U 22097AT  23170.70100141  .00003165  00000-0  21685-3 0  9990,2 53429  53.2162 246.4264 0000849 104.1242 255.9845 15.08841883 48249,6917.875,95.437,540.327,539.152,0.0
53429.0,STARLINK-4543,PAYLOAD,2023-06-19 21:35:37,15.08824488,6.82e-05,53.2165,245.5344,128.6406,231.4647,5.238e-05,5.46e-06,0.0,0 STARLINK-4543,1 53429U 22097AT  23170.89973656  .00000546  00000-0  52380-4 0  9996,2 53429  53.2165 245.5344 0000682 128.6406 231.4647 15.08824488 48273,6917.928,95.439,540.265,539.321,0.0
53429.0,STARLINK-4543,PAYLOAD,2023-06-20 11:54:04,15.08844026,9.09e-05,53.217,242.8566,97.1385,262.9711,4.757e-05,4.7e-06,0.0,0 STARLINK-4543,1 53429U 22097AT  23171.49588777  .00000470  00000-0  47570-4 0  9990,2 53429  53.2170 242.8566 0000909  97.1385 262.9711 15.08844026 48847,6917.868,95.437,540.362,539.104,0.0
53429.0,STARLINK-4543,PAYLOAD,2023-06-20 16:40:14,15.08842157,0.0001074,53.2169,241.9654,97.5933,262.5181,3.5504e-05,2.77e-06,0.0,0 STARLINK-4543,1 53429U 22097AT  23171.69460923  .00000277  00000-0  35504-4 0  9993,2 53429  53.2169 241.9654 0001074  97.5933 262.5181 15.08842157 48390,6917.874,95.437,540.482,538.996,0.0
53429.0,STARLINK-4543,PAYLOAD,2023-06-21 11:44:51,15.08847924,8.67e-05,53.2164,238.3975,99.5727,260.5363,-7.4008e-06,-4.06e-06,0.0,0 STARLINK-4543,1 53429U 22097AT  23172.48948560 -.00000406  00000-0 -74008-5 0  9998,2 53429  53.2164 238.3975 0000867  99.5727 260.5363 15.08847924 48996,6917.856,95.437,540.321,539.121,0.0
53429.0,STARLINK-4543,PAYLOAD,2023-06-21 21:17:10,15.08846435,9.87e-05,53.2167,236.6148,79.4411,280.6692,-3.7753e-05,-8.89e-06,0.0,0 STARLINK-4543,1 53429U 22097AT  23172.88692627 -.00000889  00000-0 -37753-4 0  9992,2 53429  53.2167 236.6148 0000987  79.4411 280.6692 15.08846435 48570,6917.861,95.437,540.409,539.043,0.0
53429.0,STARLINK-4543,PAYLOAD,2023-06-22 21:07:57,15.08839919,9.99e-05,53.2166,232.1517,89.8258,270.2849,7.7628e-05,9.48e-06,0.0,0 STARLINK-4543,1 53429U 22097AT  23173.88052951  .00000948  00000-0  77628-4 0  9992,2 53429  53.2166 232.1517 0000999  89.8258 270.2849 15.08839919 48722,6917.881,95.438,540.437,539.055,0.0
53429.0,STARLINK-4543,PAYLOAD,2023-06-23 16:12:34,15.08853266,8.77e-05,53.2161,228.5841,83.7262,276.383,0.00013222,1.818e-05,0.0,0 STARLINK-4543,1 53429U 22097AT  23174.67539873  .00001818  00000-0  13222-3 0  9999,2 53429  53.2161 228.5841 0000877  83.7262 276.3830 15.08853266 48840,6917.84,95.437,540.312,539.098,0.0
53429.0,STARLINK-4543,PAYLOAD,2023-06-23 20:58:44,15.08835229,4.95e-05,53.2167,227.6929,78.552,281.5527,6.317e-06,-1.87e-06,0.0,0 STARLINK-4543,1 53429U 22097AT  23174.87413168 -.00000187  00000-0  63170-5 0  9997,2 53429  53.2167 227.6929 0000495  78.5520 281.5527 15.08835229 48871,6917.895,95.438,540.102,539.418,0.0
53429.0,STARLINK-4543,PAYLOAD,2023-06-24 14:27:58,15.08846189,9.86e-05,53.2158,224.4203,86.8449,273.2656,0.00010196,1.336e-05,0.0,0 STARLINK-4543,1 53429U 22097AT  23175.60276523  .00001336  00000-0  10196-3 0  9995,2 53429  53.2158 224.4203 0000986  86.8449 273.2656 15.08846189 48988,6917.861,95.437,540.409,539.044,0.0
53429.0,STARLINK-4543,PAYLOAD,2023-06-24 20:49:31,15.08838909,9.12e-05,53.2165,223.2316,79.2584,280.8511,3.6475e-05,2.93e-06,0.0,0 STARLINK-4543,1 53429U 22097AT  23175.86773114  .00000293  00000-0  36475-4 0  9991,2 53429  53.2165 223.2316 0000912  79.2584 280.8511 15.08838909 49024,6917.884,95.438,540.38,539.118,0.0
53429.0,STARLINK-4543,PAYLOAD,2023-06-25 12:43:22,15.08847153,0.0001032,53.2151,220.2579,82.6191,277.4918,0.00010565,1.394e-05,0.0,0 STARLINK-4543,1 53429U 22097AT  23176.53012586  .00001394  00000-0  10565-3 0  9999,2 53429  53.2151 220.2579 0001032  82.6191 277.4918 15.08847153 49128,6917.859,95.437,540.437,539.01,0.0
53429.0,STARLINK-4543,PAYLOAD,2023-06-26 09:23:24,15.08839092,0.0001125,53.2149,216.391,90.983,269.1291,8.3801e-05,1.046e-05,0.0,0 STARLINK-4543,1 53429U 22097AT  23177.39125103  .00001046  00000-0  83801-4 0  9992,2 53429  53.2149 216.3910 0001125  90.9830 269.1291 15.08839092 49254,6917.883,95.438,540.526,538.97,0.0
53429.0,STARLINK-4543,PAYLOAD,2023-06-27 18:46:30,15.08837294,0.0001098,53.2166,210.1485,91.0521,269.0597,2.2058e-05,6.3e-07,0.0,0 STARLINK-4543,1 53429U 22097AT  23178.78229474  .00000063  00000-0  22058-4 0  9997,2 53429  53.2166 210.1485 0001098  91.0521 269.0597 15.08837294 49463,6917.889,95.438,540.513,538.994,0.0
53429.0,STARLINK-4543,PAYLOAD,2023-06-28 07:29:36,15.08829046,0.0001546,53.2161,207.7684,22.9133,337.1928,-4.3348e-06,-3.57e-06,0.0,0 STARLINK-4543,1 53429U 22097AT  23179.31222380 -.00000357  00000-0 -43348-5 0  9990,2 53429  53.2161 207.7684 0001546  22.9133 337.1928 15.08829046 49541,6917.914,95.438,540.848,538.709,0.0
53429.0,STARLINK-4543,PAYLOAD,2023-06-28 12:15:47,15.08804573,0.0001121,53.2159,206.8766,74.1953,285.9163,-0.00021407,-3.69e-05,0.0,0 STARLINK-4543,1 53429U 22097AT  23179.51096695 -.00003690  00000-0 -21407-3 0  9993,2 53429  53.2159 206.8766 0001121  74.1953 285.9163 15.08804573 49579,6917.989,95.44,540.629,539.078,0.0
53429.0,STARLINK-4543,PAYLOAD,2023-06-29 10:31:10,15.08828546,8.91e-05,53.2156,202.7134,81.6387,278.4707,1.5961e-05,-3.4e-07,0.0,0 STARLINK-4543,1 53429U 22097AT  23180.43831488 -.00000034  00000-0  15961-4 0  9990,2 53429  53.2156 202.7134 0000891  81.6387 278.4707 15.08828546 49710,6917.915,95.438,540.397,539.164,0.0
53429.0,STARLINK-4543,PAYLOAD,2023-06-29 13:41:55,15.08850101,7.56e-05,53.2158,202.1188,81.7138,278.394,0.00019498,2.818e-05,0.0,0 STARLINK-4543,1 53429U 22097AT  23180.57077614  .00002818  00000-0  19498-3 0  9997,2 53429  53.2158 202.1188 0000756  81.7138 278.3940 15.08850101 49732,6917.85,95.437,540.238,539.192,0.0
